[
    {
        "Altitude(m)": 702997.149872306,
        "Argument of Periapsis(deg)": 0.005695060593313534,
        "Eccentricity": 0.0,
        "Inclination(deg)": 45.0,
        "Latitude(deg)": 4.04160810465613,
        "Longitude(deg)": 148.6582571935626,
        "Mean Anomaly(deg)": 5.766608323740386,
        "RAAN(deg)": 244.9946240292709,
        "Satellite Name": "Constellation 1 1078",
        "Satellite Number": 1078,
        "Semi-Major Axis(m)": 7083131.272910544,
        "Time(s)": 95
    },
    {
        "Altitude(m)": 702993.5026494235,
        "Argument of Periapsis(deg)": 0.00575500859955894,
        "Eccentricity": 0.0,
        "Inclination(deg)": 45.0,
        "Latitude(deg)": 4.084719622455925,
        "Longitude(deg)": 148.69722662377202,
        "Mean Anomaly(deg)": 5.827309463990324,
        "RAAN(deg)": 244.99456744010536,
        "Satellite Name": "Constellation 1 1078",
        "Satellite Number": 1078,
        "Semi-Major Axis(m)": 7083131.272910544,
        "Time(s)": 96
    },
    {
        "Altitude(m)": 702989.8762692544,
        "Argument of Periapsis(deg)": 0.005814956605804345,
        "Eccentricity": 0.0,
        "Inclination(deg)": 45.0,
        "Latitude(deg)": 4.127828836031806,
        "Longitude(deg)": 148.73620087576094,
        "Mean Anomaly(deg)": 5.88801060424021,
        "RAAN(deg)": 244.9945108509398,
        "Satellite Name": "Constellation 1 1078",
        "Satellite Number": 1078,
        "Semi-Major Axis(m)": 7083131.272910544,
        "Time(s)": 97
    },
    {
        "Altitude(m)": 702986.2707293157,
        "Argument of Periapsis(deg)": 0.00587490461204975,
        "Eccentricity": 0.0,
        "Inclination(deg)": 45.0,
        "Latitude(deg)": 4.170935720005653,
        "Longitude(deg)": 148.7751798302538,
        "Mean Anomaly(deg)": 5.9487117444900965,
        "RAAN(deg)": 244.99445426177425,
        "Satellite Name": "Constellation 1 1078",
        "Satellite Number": 1078,
        "Semi-Major Axis(m)": 7083131.272910544,
        "Time(s)": 98
    },
    {
        "Altitude(m)": 702982.686027043,
        "Argument of Periapsis(deg)": 0.005934852618295156,
        "Eccentricity": 0.0,
        "Inclination(deg)": 45.0,
        "Latitude(deg)": 4.2140402489900515,
        "Longitude(deg)": 148.8141635360825,
        "Mean Anomaly(deg)": 6.009412884739983,
        "RAAN(deg)": 244.9943976726086,
        "Satellite Name": "Constellation 1 1078",
        "Satellite Number": 1078,
        "Semi-Major Axis(m)": 7083131.272910544,
        "Time(s)": 99
    },
    {
        "Altitude(m)": 702979.1221597653,
        "Argument of Periapsis(deg)": 0.005994800624540561,
        "Eccentricity": 0.0,
        "Inclination(deg)": 45.0,
        "Latitude(deg)": 4.257142397588437,
        "Longitude(deg)": 148.85315204209007,
        "Mean Anomaly(deg)": 6.070114024989921,
        "RAAN(deg)": 244.99434108344306,
        "Satellite Name": "Constellation 1 1078",
        "Satellite Number": 1078,
        "Semi-Major Axis(m)": 7083131.272910544,
        "Time(s)": 100
    },
    {
        "Altitude(m)": 702975.5791247278,
        "Argument of Periapsis(deg)": 0.006054748630785968,
        "Eccentricity": 0.0,
        "Inclination(deg)": 45.0,
        "Latitude(deg)": 4.300242140395014,
        "Longitude(deg)": 148.89214539713007,
        "Mean Anomaly(deg)": 6.130815165239807,
        "RAAN(deg)": 244.9942844942775,
        "Satellite Name": "Constellation 1 1078",
        "Satellite Number": 1078,
        "Semi-Major Axis(m)": 7083131.272910544,
        "Time(s)": 101
    },
    {
        "Altitude(m)": 702972.0569190799,
        "Argument of Periapsis(deg)": 0.006114696637031373,
        "Eccentricity": 0.0,
        "Inclination(deg)": 45.0,
        "Latitude(deg)": 4.3433394519946456,
        "Longitude(deg)": 148.93114365006699,
        "Mean Anomaly(deg)": 6.191516305489694,
        "RAAN(deg)": 244.99422790511196,
        "Satellite Name": "Constellation 1 1078",
        "Satellite Number": 1078,
        "Semi-Major Axis(m)": 7083131.272910544,
        "Time(s)": 102
    },
    {
        "Altitude(m)": 702968.5555398815,
        "Argument of Periapsis(deg)": 0.006174644643276778,
        "Eccentricity": 0.0,
        "Inclination(deg)": 45.0,
        "Latitude(deg)": 4.386434306962779,
        "Longitude(deg)": 148.9701468497766,
        "Mean Anomaly(deg)": 6.25221744573963,
        "RAAN(deg)": 244.9941713159464,
        "Satellite Name": "Constellation 1 1078",
        "Satellite Number": 1078,
        "Semi-Major Axis(m)": 7083131.272910544,
        "Time(s)": 103
    },
    {
        "Altitude(m)": 702965.0749841012,
        "Argument of Periapsis(deg)": 0.006234592649522184,
        "Eccentricity": 0.0,
        "Inclination(deg)": 45.0,
        "Latitude(deg)": 4.4295266798655915,
        "Longitude(deg)": 149.00915487704836,
        "Mean Anomaly(deg)": 6.312918585989518,
        "RAAN(deg)": 244.99411472678077,
        "Satellite Name": "Constellation 1 1078",
        "Satellite Number": 1078,
        "Semi-Major Axis(m)": 7083131.272910544,
        "Time(s)": 104
    },
    {
        "Altitude(m)": 702961.6152486054,
        "Argument of Periapsis(deg)": 0.00629454065576759,
        "Eccentricity": 0.0,
        "Inclination(deg)": 45.0,
        "Latitude(deg)": 4.472616545258909,
        "Longitude(deg)": 149.04816811697458,
        "Mean Anomaly(deg)": 6.373619726239403,
        "RAAN(deg)": 244.9940581376152,
        "Satellite Name": "Constellation 1 1078",
        "Satellite Number": 1078,
        "Semi-Major Axis(m)": 7083131.272910544,
        "Time(s)": 105
    },
    {
        "Altitude(m)": 702958.1763301798,
        "Argument of Periapsis(deg)": 0.006354488662012995,
        "Eccentricity": 0.0,
        "Inclination(deg)": 45.0,
        "Latitude(deg)": 4.515703877689591,
        "Longitude(deg)": 149.08718645036745,
        "Mean Anomaly(deg)": 6.43432086648929,
        "RAAN(deg)": 244.99400154844966,
        "Satellite Name": "Constellation 1 1078",
        "Satellite Number": 1078,
        "Semi-Major Axis(m)": 7083131.272910544,
        "Time(s)": 106
    },
    {
        "Altitude(m)": 702954.7582255146,
        "Argument of Periapsis(deg)": 0.006414436668258401,
        "Eccentricity": 0.0,
        "Inclination(deg)": 45.0,
        "Latitude(deg)": 4.558788651694467,
        "Longitude(deg)": 149.1262099261477,
        "Mean Anomaly(deg)": 6.4950220067392275,
        "RAAN(deg)": 244.9939449592841,
        "Satellite Name": "Constellation 1 1078",
        "Satellite Number": 1078,
        "Semi-Major Axis(m)": 7083131.272910544,
        "Time(s)": 107
    },
    {
        "Altitude(m)": 702951.3609312047,
        "Argument of Periapsis(deg)": 0.0064743846745038075,
        "Eccentricity": 0.0,
        "Inclination(deg)": 45.0,
        "Latitude(deg)": 4.601870841800459,
        "Longitude(deg)": 149.16523859324772,
        "Mean Anomaly(deg)": 6.555723146989114,
        "RAAN(deg)": 244.99388837011855,
        "Satellite Name": "Constellation 1 1078",
        "Satellite Number": 1078,
        "Semi-Major Axis(m)": 7083131.272910544,
        "Time(s)": 108
    },
    {
        "Altitude(m)": 702947.9844437541,
        "Argument of Periapsis(deg)": 0.0065343326807492125,
        "Eccentricity": 0.0,
        "Inclination(deg)": 45.0,
        "Latitude(deg)": 4.6449504225245315,
        "Longitude(deg)": 149.20427250061155,
        "Mean Anomaly(deg)": 6.616424287239,
        "RAAN(deg)": 244.99383178095295,
        "Satellite Name": "Constellation 1 1078",
        "Satellite Number": 1078,
        "Semi-Major Axis(m)": 7083131.272910544,
        "Time(s)": 109
    },
    {
        "Altitude(m)": 702944.6287595821,
        "Argument of Periapsis(deg)": 0.0065942806869946176,
        "Eccentricity": 0.0,
        "Inclination(deg)": 45.0,
        "Latitude(deg)": 4.688027368373555,
        "Longitude(deg)": 149.24331169719486,
        "Mean Anomaly(deg)": 6.677125427488938,
        "RAAN(deg)": 244.99377519178736,
        "Satellite Name": "Constellation 1 1078",
        "Satellite Number": 1078,
        "Semi-Major Axis(m)": 7083131.272910544,
        "Time(s)": 110
    },
    {
        "Altitude(m)": 702941.2938749989,
        "Argument of Periapsis(deg)": 0.006654228693240024,
        "Eccentricity": 0.0,
        "Inclination(deg)": 45.0,
        "Latitude(deg)": 4.731101653844489,
        "Longitude(deg)": 149.28235606386832,
        "Mean Anomaly(deg)": 6.737826567738825,
        "RAAN(deg)": 244.9937186026218,
        "Satellite Name": "Constellation 1 1078",
        "Satellite Number": 1078,
        "Semi-Major Axis(m)": 7083131.272910544,
        "Time(s)": 111
    },
    {
        "Altitude(m)": 702937.9797862417,
        "Argument of Periapsis(deg)": 0.006714176699485429,
        "Eccentricity": 0.0,
        "Inclination(deg)": 45.0,
        "Latitude(deg)": 4.774173253423291,
        "Longitude(deg)": 149.32140598580554,
        "Mean Anomaly(deg)": 6.798527707988711,
        "RAAN(deg)": 244.99366201345626,
        "Satellite Name": "Constellation 1 1078",
        "Satellite Number": 1078,
        "Semi-Major Axis(m)": 7083131.272910544,
        "Time(s)": 112
    },
    {
        "Altitude(m)": 702934.6864894428,
        "Argument of Periapsis(deg)": 0.006774124705730835,
        "Eccentricity": 0.0,
        "Inclination(deg)": 45.0,
        "Latitude(deg)": 4.817242141586308,
        "Longitude(deg)": 149.3604613439012,
        "Mean Anomaly(deg)": 6.8592288482385975,
        "RAAN(deg)": 244.9936054242907,
        "Satellite Name": "Constellation 1 1078",
        "Satellite Number": 1078,
        "Semi-Major Axis(m)": 7083131.272910544,
        "Time(s)": 113
    }
]